{
  "norad_id": 64250,
  "name": "STARLINK-34229",
  "history": [
    {
      "epoch": "2026-03-28T16:49:58.533888Z",
      "apogee_km": 483.83237714839834,
      "perigee_km": 482.11558995809355,
      "latitude_deg": -3.5716337494421924e-05,
      "longitude_deg": 121.35783115683583,
      "height_km": 483.01895974325186,
      "semi_major_axis_km": 6861.110983553246,
      "eccentricity": 0.00012511,
      "inclination_deg": 43.0036,
      "raan_deg": 199.9698,
      "arg_perigee_deg": 251.8013,
      "mean_anomaly_deg": 108.2702,
      "mean_motion_rev_day": 15.27605085
    },
    {
      "epoch": "2026-03-29T00:40:46.738272Z",
      "apogee_km": 483.9986953877715,
      "perigee_km": 482.08991474870254,
      "latitude_deg": 3.0380602482100736e-05,
      "longitude_deg": 1.489396456521794,
      "height_km": 482.34148583931636,
      "semi_major_axis_km": 6861.181305068237,
      "eccentricity": 0.0001391,
      "inclination_deg": 43.0011,
      "raan_deg": 198.1244,
      "arg_perigee_deg": 60.0077,
      "mean_anomaly_deg": 300.0913,
      "mean_motion_rev_day": 15.275816
    },
    {
      "epoch": "2026-03-30T00:13:06.811104Z",
      "apogee_km": 483.99780098634255,
      "perigee_km": 482.0066983760853,
      "latitude_deg": -4.3792960109613066e-05,
      "longitude_deg": 1.8988724194777609,
      "height_km": 482.50797416366174,
      "semi_major_axis_km": 6861.139249681214,
      "eccentricity": 0.0001451,
      "inclination_deg": 43.0039,
      "raan_deg": 192.5843,
      "arg_perigee_deg": 285.8228,
      "mean_anomaly_deg": 74.2463,
      "mean_motion_rev_day": 15.27595645
    },
    {
      "epoch": "2026-03-30T06:29:44.650752Z",
      "apogee_km": 483.5591470610025,
      "perigee_km": 482.42953039739496,
      "latitude_deg": 3.715355718029527e-05,
      "longitude_deg": -93.99530068994021,
      "height_km": 483.32295301263986,
      "semi_major_axis_km": 6861.131338729198,
      "eccentricity": 8.232e-05,
      "inclination_deg": 43.0023,
      "raan_deg": 191.1055,
      "arg_perigee_deg": 191.8038,
      "mean_anomaly_deg": 168.2795,
      "mean_motion_rev_day": 15.27598287
    },
    {
      "epoch": "2026-03-30T08:03:53.959680Z",
      "apogee_km": 483.9322014811105,
      "perigee_km": 482.1886339933153,
      "latitude_deg": 2.3923052939077643e-05,
      "longitude_deg": -117.96634883349876,
      "height_km": 483.0537033897343,
      "semi_major_axis_km": 6861.197417737212,
      "eccentricity": 0.00012706,
      "inclination_deg": 43.0038,
      "raan_deg": 190.7377,
      "arg_perigee_deg": 255.6318,
      "mean_anomaly_deg": 104.4393,
      "mean_motion_rev_day": 15.27576219
    }
  ]
}